GLOBALSTAR M084         
1 38040U 11080A   25207.68637580 -.00000074  00000+0  16630-3 0  9994
2 38040  52.0014 288.2272 0000867 121.6469  43.6769 12.62267459627655
GLOBALSTAR M080         
1 38041U 11080B   25207.97582627 -.00000080  00000+0  13008-3 0  9991
2 38041  52.0064 288.9524 0000407 177.5098 353.0246 12.62267708627819
GLOBALSTAR M082         
1 38042U 11080C   25207.83271229 -.00000088  00000+0  85335-4 0  9991
2 38042  52.0056 244.8518 0000263 233.7891 297.0507 12.62267612628509
GLOBALSTAR M092         
1 38043U 11080D   25207.80292037 -.00000088  00000+0  87393-4 0  9995
2 38043  52.0106 335.3206 0000754 108.2839  46.7351 12.62265179626958
GLOBALSTAR M090         
1 38044U 11080E   25207.53878155 -.00000086  00000+0  98291-4 0  9994
2 38044  52.0101 239.5949 0000103  94.4180  61.0166 12.62261331628587
GLOBALSTAR M086         
1 38045U 11080F   25207.80606804 -.00000044  00000+0  33103-3 0  9999
2 38045  51.9877 239.2401 0001211  63.1957 108.8955 12.62275441628563
GLOBALSTAR M097         
1 39072U 13005A   25207.87415272 -.00000121  00000+0 -93979-4 0  9998
2 39072  52.0032 153.6186 0000507  30.8403 329.2494 12.62265590575823
GLOBALSTAR M093         
1 39073U 13005B   25207.76860141 -.00000105  00000+0 -88186-5 0  9993
2 39073  51.9800 147.1798 0000559  23.6030 336.4862 12.62266228575766
